0 THOR ABLESTAR DEB
1 00658U 61015HK  13281.49736920  .00000935  00000-0  13312-2 0  5970
2 00658 065.8671 090.3358 0375184 227.1118 162.3172 13.35370048440073
0 THOR ABLESTAR DEB
1 00658U 61015HK  13284.50181560  .00000877  00000-0  12561-2 0  5980
2 00658 065.8671 083.3919 0374440 225.7374 205.6804 13.35376101440473
0 THOR ABLESTAR DEB
1 00658U 61015HK  13286.84364814  .00000865  00000-0  12410-2 0  5995
2 00658 065.8678 077.9796 0374323 224.6522 303.6932 13.35379335440782
0 THOR ABLESTAR DEB
1 00658U 61015HK  13288.92305913  .00000949  00000-0  13527-2 0  6007
2 00658 065.8685 073.1738 0374220 223.6920 220.1759 13.35383339441062
0 THOR ABLESTAR DEB
1 00658U 61015HK  13290.77732912  .00000788  00000-0  10402-2 0  6017
2 00658 065.8689 068.8964 0374690 222.6370 134.5461 13.35385028441398
0 THOR ABLESTAR DEB
1 00658U 61015HK  13291.02445958  .00000861  00000-0  12363-2 0  6028
2 00658 065.8683 068.3167 0374169 222.7325 242.3870 13.35386429441347
0 THOR ABLESTAR DEB
1 00658U 61015HK  13293.41346425  .00000899  00000-0  12865-2 0  6031
2 00658 065.8688 062.7962 0373812 221.6052 207.2846 13.35389876441669
0 THOR ABLESTAR DEB
1 00658U 61015HK  13295.43439341  .00000834  00000-0  12011-2 0  6048
2 00658 065.8688 058.1258 0373732 220.6824 202.6858 13.35394009441939
